{
  "type": "FeatureCollection",
  "features": [
    {
      "type": "Feature",
      "properties": {
        "norad_id": 30656,
        "name": "FENGYUN 1C DEB",
        "group": "fengyun-1c-debris",
        "lat": -29.807534777090872,
        "lon": 171.53923021777663,
        "alt_km": 750.5800947483131,
        "timestamp": "2025-12-17T21:39:45.964898+00:00",
        "meta_object_name": "FENGYUN 1C DEB",
        "meta_object_id": "1999-025APN",
        "meta_epoch": "2025-12-17T10:10:21.286272",
        "meta_mean_motion": 14.45406291,
        "meta_eccentricity": 0.00301607,
        "meta_inclination": 99.0176,
        "meta_ra_of_asc_node": 165.8113,
        "meta_arg_of_pericenter": 72.2554,
        "meta_mean_anomaly": 288.1923,
        "meta_ephemeris_type": 0,
        "meta_classification_type": "U",
        "meta_norad_cat_id": 30656,
        "meta_element_set_no": 999,
        "meta_rev_at_epoch": 97153,
        "meta_bstar": 0.0019259995,
        "meta_mean_motion_dot": 6.772e-05,
        "meta_mean_motion_ddot": 0,
        "tle_line1": "1 30656U 99025APN 25351.42385748  .00006772  00000+0  19260-2 0  9993",
        "tle_line2": "2 30656  99.0176 165.8113 0030160  72.2554 288.1923 14.45406291971538"
      },
      "geometry": {
        "type": "Point",
        "coordinates": [
          171.53923021777663,
          -29.807534777090872
        ]
      }
    },
    {
      "type": "Feature",
      "properties": {
        "norad_id": 30657,
        "name": "FENGYUN 1C DEB",
        "group": "fengyun-1c-debris",
        "lat": -37.9945839553229,
        "lon": 97.05977815151103,
        "alt_km": 757.8328654383231,
        "timestamp": "2025-12-17T21:39:45.964907+00:00",
        "meta_object_name": "FENGYUN 1C DEB",
        "meta_object_id": "1999-025APP",
        "meta_epoch": "2025-12-17T05:28:04.014336",
        "meta_mean_motion": 14.38654651,
        "meta_eccentricity": 0.00161553,
        "meta_inclination": 98.8343,
        "meta_ra_of_asc_node": 89.3878,
        "meta_arg_of_pericenter": 329.9747,
        "meta_mean_anomaly": 98.7492,
        "meta_ephemeris_type": 0,
        "meta_classification_type": "U",
        "meta_norad_cat_id": 30657,
        "meta_element_set_no": 999,
        "meta_rev_at_epoch": 97297,
        "meta_bstar": 0.0017005697,
        "meta_mean_motion_dot": 5.176e-05,
        "meta_mean_motion_ddot": 0,
        "tle_line1": "1 30657U 99025APP 25351.22782424  .00005176  00000+0  17006-2 0  9997",
        "tle_line2": "2 30657  98.8343  89.3878 0016155 329.9747  98.7492 14.38654651972976"
      },
      "geometry": {
        "type": "Point",
        "coordinates": [
          97.05977815151103,
          -37.9945839553229
        ]
      }
    },
    {
      "type": "Feature",
      "properties": {
        "norad_id": 30658,
        "name": "FENGYUN 1C DEB",
        "group": "fengyun-1c-debris",
        "lat": -31.108256191824722,
        "lon": 28.987644432107164,
        "alt_km": 999.2774510295576,
        "timestamp": "2025-12-17T21:39:45.964916+00:00",
        "meta_object_name": "FENGYUN 1C DEB",
        "meta_object_id": "1999-025APQ",
        "meta_epoch": "2025-12-17T01:02:42.523008",
        "meta_mean_motion": 13.87222504,
        "meta_eccentricity": 0.01842375,
        "meta_inclination": 98.4398,
        "meta_ra_of_asc_node": 23.0711,
        "meta_arg_of_pericenter": 215.9565,
        "meta_mean_anomaly": 142.9083,
        "meta_ephemeris_type": 0,
        "meta_classification_type": "U",
        "meta_norad_cat_id": 30658,
        "meta_element_set_no": 999,
        "meta_rev_at_epoch": 94744,
        "meta_bstar": 0.0014695272,
        "meta_mean_motion_dot": 1.936e-05,
        "meta_mean_motion_ddot": 0,
        "tle_line1": "1 30658U 99025APQ 25351.04354772  .00001936  00000+0  14695-2 0  9990",
        "tle_line2": "2 30658  98.4398  23.0711 0184237 215.9565 142.9083 13.87222504947446"
      },
      "geometry": {
        "type": "Point",
        "coordinates": [
          28.987644432107164,
          -31.108256191824722
        ]
      }
    },
    {
      "type": "Feature",
      "properties": {
        "norad_id": 30660,
        "name": "FENGYUN 1C DEB",
        "group": "fengyun-1c-debris",
        "lat": 54.571136406747506,
        "lon": -79.90022861645868,
        "alt_km": 693.3612206938114,
        "timestamp": "2025-12-17T21:39:45.964924+00:00",
        "meta_object_name": "FENGYUN 1C DEB",
        "meta_object_id": "1999-025APS",
        "meta_epoch": "2025-12-16T02:04:12.254016",
        "meta_mean_motion": 14.87578274,
        "meta_eccentricity": 0.0136896,
        "meta_inclination": 98.1391,
        "meta_ra_of_asc_node": 86.6315,
        "meta_arg_of_pericenter": 323.5173,
        "meta_mean_anomaly": 159.4066,
        "meta_ephemeris_type": 0,
        "meta_classification_type": "U",
        "meta_norad_cat_id": 30660,
        "meta_element_set_no": 999,
        "meta_rev_at_epoch": 834,
        "meta_bstar": 0.0004011326,
        "meta_mean_motion_dot": 4.262e-05,
        "meta_mean_motion_ddot": 0,
        "tle_line1": "1 30660U 99025APS 25350.08625294  .00004262  00000+0  40113-3 0  9996",
        "tle_line2": "2 30660  98.1391  86.6315 0136896 323.5173 159.4066 14.87578274  8343"
      },
      "geometry": {
        "type": "Point",
        "coordinates": [
          -79.90022861645868,
          54.571136406747506
        ]
      }
    },
    {
      "type": "Feature",
      "properties": {
        "norad_id": 30661,
        "name": "FENGYUN 1C DEB",
        "group": "fengyun-1c-debris",
        "lat": 21.083794269869625,
        "lon": 164.26502772497716,
        "alt_km": 718.5691728269285,
        "timestamp": "2025-12-17T21:39:45.964933+00:00",
        "meta_object_name": "FENGYUN 1C DEB",
        "meta_object_id": "1999-025APT",
        "meta_epoch": "2025-12-16T10:04:54.000480",
        "meta_mean_motion": 14.21144396,
        "meta_eccentricity": 0.01446168,
        "meta_inclination": 99.4871,
        "meta_ra_of_asc_node": 166.3698,
        "meta_arg_of_pericenter": 35.2853,
        "meta_mean_anomaly": 325.7791,
        "meta_ephemeris_type": 0,
        "meta_classification_type": "U",
        "meta_norad_cat_id": 30661,
        "meta_element_set_no": 999,
        "meta_rev_at_epoch": 97954,
        "meta_bstar": 0.00011408083,
        "meta_mean_motion_dot": 2.25e-06,
        "meta_mean_motion_ddot": 0,
        "tle_line1": "1 30661U 99025APT 25350.42006945  .00000225  00000+0  11408-3 0  9991",
        "tle_line2": "2 30661  99.4871 166.3698 0144616  35.2853 325.7791 14.21144396979546"
      },
      "geometry": {
        "type": "Point",
        "coordinates": [
          164.26502772497716,
          21.083794269869625
        ]
      }
    },
    {
      "type": "Feature",
      "properties": {
        "norad_id": 30662,
        "name": "FENGYUN 1C DEB",
        "group": "fengyun-1c-debris",
        "lat": 80.62632938028872,
        "lon": -56.70557392019148,
        "alt_km": 832.8317188261408,
        "timestamp": "2025-12-17T21:39:45.964942+00:00",
        "meta_object_name": "FENGYUN 1C DEB",
        "meta_object_id": "1999-025APU",
        "meta_epoch": "2025-12-17T02:47:53.975616",
        "meta_mean_motion": 14.2238731,
        "meta_eccentricity": 0.00333112,
        "meta_inclination": 99.053,
        "meta_ra_of_asc_node": 47.5109,
        "meta_arg_of_pericenter": 258.3821,
        "meta_mean_anomaly": 131.5027,
        "meta_ephemeris_type": 0,
        "meta_classification_type": "U",
        "meta_norad_cat_id": 30662,
        "meta_element_set_no": 999,
        "meta_rev_at_epoch": 96701,
        "meta_bstar": 0.0012023141,
        "meta_mean_motion_dot": 2.645e-05,
        "meta_mean_motion_ddot": 0,
        "tle_line1": "1 30662U 99025APU 25351.11659694  .00002645  00000+0  12023-2 0  9995",
        "tle_line2": "2 30662  99.0530  47.5109 0033311 258.3821 131.5027 14.22387310967014"
      },
      "geometry": {
        "type": "Point",
        "coordinates": [
          -56.70557392019148,
          80.62632938028872
        ]
      }
    },
    {
      "type": "Feature",
      "properties": {
        "norad_id": 30663,
        "name": "FENGYUN 1C DEB",
        "group": "fengyun-1c-debris",
        "lat": -70.20240317524102,
        "lon": -64.5784080354618,
        "alt_km": 1646.906439909927,
        "timestamp": "2025-12-17T21:39:45.964952+00:00",
        "meta_object_name": "FENGYUN 1C DEB",
        "meta_object_id": "1999-025APV",
        "meta_epoch": "2025-12-17T05:44:16.643328",
        "meta_mean_motion": 13.23155811,
        "meta_eccentricity": 0.06484684,
        "meta_inclination": 99.3033,
        "meta_ra_of_asc_node": 267.7385,
        "meta_arg_of_pericenter": 125.6375,
        "meta_mean_anomaly": 240.6929,
        "meta_ephemeris_type": 0,
        "meta_classification_type": "U",
        "meta_norad_cat_id": 30663,
        "meta_element_set_no": 999,
        "meta_rev_at_epoch": 89107,
        "meta_bstar": 0.001796008,
        "meta_mean_motion_dot": 2.316e-05,
        "meta_mean_motion_ddot": 0,
        "tle_line1": "1 30663U 99025APV 25351.23908152  .00002316  00000+0  17960-2 0  9995",
        "tle_line2": "2 30663  99.3033 267.7385 0648468 125.6375 240.6929 13.23155811891077"
      },
      "geometry": {
        "type": "Point",
        "coordinates": [
          -64.5784080354618,
          -70.20240317524102
        ]
      }
    }
  ]
}